ORBCOMM FM115           
1 41186U 15081H   26004.48609032  .00001368  00000+0  29843-3 0  9995
2 41186  46.9966 161.8624 0001498 259.0080 101.0638 14.62972502537244
ORBCOMM FM108           
1 41187U 15081J   26004.31770229  .00001157  00000+0  28232-3 0  9992
2 41187  47.0038 236.8221 0002344 166.1996 193.8954 14.58614377536155
ORBCOMM FM117           
1 41188U 15081K   26004.62563726  .00001154  00000+0  28162-3 0  9998
2 41188  47.0003 234.0538 0002757 173.8025 186.2895 14.58639699536249
ORBCOMM FM116           
1 41189U 15081L   26004.60604545  .00001716  00000+0  40089-3 0  9998
2 41189  47.0027 323.9197 0001936 348.7378  11.3464 14.58642021535058
